{
  "type": "FeatureCollection",
  "features": [
    {
      "type": "Feature",
      "properties": {
        "norad_id": 66619,
        "name": "STARLINK-35951",
        "group": "last-30-days",
        "lat": -18.23630241486229,
        "lon": 167.1548159190494,
        "alt_km": 422.0864369798519,
        "timestamp": "2025-12-13T22:39:28.444624+00:00",
        "meta_object_name": "STARLINK-35951",
        "meta_object_id": "2025-271C",
        "meta_epoch": "2025-12-13T06:00:02.000160",
        "meta_mean_motion": 15.49256224,
        "meta_eccentricity": 7.785e-05,
        "meta_inclination": 53.1598,
        "meta_ra_of_asc_node": 184.7758,
        "meta_arg_of_pericenter": 153.7545,
        "meta_mean_anomaly": 270.0269,
        "meta_ephemeris_type": 0,
        "meta_classification_type": "U",
        "meta_norad_cat_id": 66619,
        "meta_element_set_no": 999,
        "meta_rev_at_epoch": 432,
        "meta_bstar": 0.0011850778,
        "meta_mean_motion_dot": 0.00065896,
        "meta_mean_motion_ddot": 0,
        "tle_line1": "1 66619U 25271C   25347.25002315  .00065896  00000+0  11851-2 0  9995",
        "tle_line2": "2 66619  53.1598 184.7758 0000778 153.7545 270.0269 15.49256224  4328"
      },
      "geometry": {
        "type": "Point",
        "coordinates": [
          167.1548159190494,
          -18.23630241486229
        ]
      }
    },
    {
      "type": "Feature",
      "properties": {
        "norad_id": 66620,
        "name": "STARLINK-35936",
        "group": "last-30-days",
        "lat": -22.668941314743083,
        "lon": 163.22176033880078,
        "alt_km": 422.63131918436375,
        "timestamp": "2025-12-13T22:39:28.444638+00:00",
        "meta_object_name": "STARLINK-35936",
        "meta_object_id": "2025-271D",
        "meta_epoch": "2025-12-13T06:00:02.000160",
        "meta_mean_motion": 15.49397948,
        "meta_eccentricity": 5.758e-05,
        "meta_inclination": 53.1599,
        "meta_ra_of_asc_node": 184.7896,
        "meta_arg_of_pericenter": 74.6861,
        "meta_mean_anomaly": 343.3983,
        "meta_ephemeris_type": 0,
        "meta_classification_type": "U",
        "meta_norad_cat_id": 66620,
        "meta_element_set_no": 999,
        "meta_rev_at_epoch": 432,
        "meta_bstar": -0.0032360529,
        "meta_mean_motion_dot": -0.00176956,
        "meta_mean_motion_ddot": 0,
        "tle_line1": "1 66620U 25271D   25347.25002315 -.00176956  00000+0 -32361-2 0  9998",
        "tle_line2": "2 66620  53.1599 184.7896 0000575  74.6861 343.3983 15.49397948  4327"
      },
      "geometry": {
        "type": "Point",
        "coordinates": [
          163.22176033880078,
          -22.668941314743083
        ]
      }
    },
    {
      "type": "Feature",
      "properties": {
        "norad_id": 66621,
        "name": "STARLINK-35847",
        "group": "last-30-days",
        "lat": 20.659531346324272,
        "lon": -162.22604786919484,
        "alt_km": 416.19232876777005,
        "timestamp": "2025-12-13T22:39:28.444648+00:00",
        "meta_object_name": "STARLINK-35847",
        "meta_object_id": "2025-271E",
        "meta_epoch": "2025-12-13T06:00:02.000160",
        "meta_mean_motion": 15.49251226,
        "meta_eccentricity": 5.54e-05,
        "meta_inclination": 53.1601,
        "meta_ra_of_asc_node": 184.6726,
        "meta_arg_of_pericenter": 55.3579,
        "meta_mean_anomaly": 57.6211,
        "meta_ephemeris_type": 0,
        "meta_classification_type": "U",
        "meta_norad_cat_id": 66621,
        "meta_element_set_no": 999,
        "meta_rev_at_epoch": 432,
        "meta_bstar": 0.0011684043,
        "meta_mean_motion_dot": 0.00064943,
        "meta_mean_motion_ddot": 0,
        "tle_line1": "1 66621U 25271E   25347.25002315  .00064943  00000+0  11684-2 0  9994",
        "tle_line2": "2 66621  53.1601 184.6726 0000554  55.3579  57.6211 15.49251226  4329"
      },
      "geometry": {
        "type": "Point",
        "coordinates": [
          -162.22604786919484,
          20.659531346324272
        ]
      }
    },
    {
      "type": "Feature",
      "properties": {
        "norad_id": 66622,
        "name": "STARLINK-35950",
        "group": "last-30-days",
        "lat": -16.757152937983797,
        "lon": 168.40759658004038,
        "alt_km": 422.07545640129865,
        "timestamp": "2025-12-13T22:39:28.444658+00:00",
        "meta_object_name": "STARLINK-35950",
        "meta_object_id": "2025-271F",
        "meta_epoch": "2025-12-13T06:00:02.000160",
        "meta_mean_motion": 15.49387136,
        "meta_eccentricity": 5.425e-05,
        "meta_inclination": 53.1597,
        "meta_ra_of_asc_node": 184.7737,
        "meta_arg_of_pericenter": 91.1905,
        "meta_mean_anomaly": 334.5481,
        "meta_ephemeris_type": 0,
        "meta_classification_type": "U",
        "meta_norad_cat_id": 66622,
        "meta_element_set_no": 999,
        "meta_rev_at_epoch": 432,
        "meta_bstar": -0.002702068,
        "meta_mean_motion_dot": -0.00148311,
        "meta_mean_motion_ddot": 0,
        "tle_line1": "1 66622U 25271F   25347.25002315 -.00148311  00000+0 -27021-2 0  9991",
        "tle_line2": "2 66622  53.1597 184.7737 0000542  91.1905 334.5481 15.49387136  4321"
      },
      "geometry": {
        "type": "Point",
        "coordinates": [
          168.40759658004038,
          -16.757152937983797
        ]
      }
    },
    {
      "type": "Feature",
      "properties": {
        "norad_id": 66623,
        "name": "STARLINK-35920",
        "group": "last-30-days",
        "lat": -13.763671977475386,
        "lon": 170.86278554385262,
        "alt_km": 421.9867596171216,
        "timestamp": "2025-12-13T22:39:28.444668+00:00",
        "meta_object_name": "STARLINK-35920",
        "meta_object_id": "2025-271G",
        "meta_epoch": "2025-12-13T06:00:02.000160",
        "meta_mean_motion": 15.49365368,
        "meta_eccentricity": 0.00011276,
        "meta_inclination": 53.1599,
        "meta_ra_of_asc_node": 184.7643,
        "meta_arg_of_pericenter": 95.018,
        "meta_mean_anomaly": 334.5909,
        "meta_ephemeris_type": 0,
        "meta_classification_type": "U",
        "meta_norad_cat_id": 66623,
        "meta_element_set_no": 999,
        "meta_rev_at_epoch": 432,
        "meta_bstar": -0.0025524088,
        "meta_mean_motion_dot": -0.00140165,
        "meta_mean_motion_ddot": 0,
        "tle_line1": "1 66623U 25271G   25347.25002315 -.00140165  00000+0 -25524-2 0  9997",
        "tle_line2": "2 66623  53.1599 184.7643 0001127  95.0180 334.5909 15.49365368  4326"
      },
      "geometry": {
        "type": "Point",
        "coordinates": [
          170.86278554385262,
          -13.763671977475386
        ]
      }
    },
    {
      "type": "Feature",
      "properties": {
        "norad_id": 66624,
        "name": "STARLINK-35927",
        "group": "last-30-days",
        "lat": -15.260719169103018,
        "lon": 169.64630925620978,
        "alt_km": 421.8517813366698,
        "timestamp": "2025-12-13T22:39:28.444678+00:00",
        "meta_object_name": "STARLINK-35927",
        "meta_object_id": "2025-271H",
        "meta_epoch": "2025-12-13T06:00:02.000160",
        "meta_mean_motion": 15.49386804,
        "meta_eccentricity": 4.784e-05,
        "meta_inclination": 53.1597,
        "meta_ra_of_asc_node": 184.7689,
        "meta_arg_of_pericenter": 81.1677,
        "meta_mean_anomaly": 346.4879,
        "meta_ephemeris_type": 0,
        "meta_classification_type": "U",
        "meta_norad_cat_id": 66624,
        "meta_element_set_no": 999,
        "meta_rev_at_epoch": 432,
        "meta_bstar": -0.0027062567,
        "meta_mean_motion_dot": -0.00148533,
        "meta_mean_motion_ddot": 0,
        "tle_line1": "1 66624U 25271H   25347.25002315 -.00148533  00000+0 -27063-2 0  9995",
        "tle_line2": "2 66624  53.1597 184.7689 0000478  81.1677 346.4879 15.49386804  4326"
      },
      "geometry": {
        "type": "Point",
        "coordinates": [
          169.64630925620978,
          -15.260719169103018
        ]
      }
    },
    {
      "type": "Feature",
      "properties": {
        "norad_id": 66625,
        "name": "STARLINK-35929",
        "group": "last-30-days",
        "lat": -12.253983796934255,
        "lon": 172.0689614795499,
        "alt_km": 421.82147304777754,
        "timestamp": "2025-12-13T22:39:28.444688+00:00",
        "meta_object_name": "STARLINK-35929",
        "meta_object_id": "2025-271J",
        "meta_epoch": "2025-12-13T06:00:02.000160",
        "meta_mean_motion": 15.49369486,
        "meta_eccentricity": 0.00010188,
        "meta_inclination": 53.1599,
        "meta_ra_of_asc_node": 184.7598,
        "meta_arg_of_pericenter": 97.2222,
        "meta_mean_anomaly": 334.3043,
        "meta_ephemeris_type": 0,
        "meta_classification_type": "U",
        "meta_norad_cat_id": 66625,
        "meta_element_set_no": 999,
        "meta_rev_at_epoch": 432,
        "meta_bstar": -0.0026818433,
        "meta_mean_motion_dot": -0.0014714,
        "meta_mean_motion_ddot": 0,
        "tle_line1": "1 66625U 25271J   25347.25002315 -.00147140  00000+0 -26818-2 0  9996",
        "tle_line2": "2 66625  53.1599 184.7598 0001018  97.2222 334.3043 15.49369486  4329"
      },
      "geometry": {
        "type": "Point",
        "coordinates": [
          172.0689614795499,
          -12.253983796934255
        ]
      }
    }
  ]
}